STARLINK-37948          
1 69670U 26143X   26193.59662258  .00033288  00000+0  61040-3 0  9995
2 69670  97.2871 237.5450 0000531 314.2724  45.8484 15.49223628  4416
STARLINK-37949          
1 69671U 26143Y   26193.58335648  .00072035  00000+0  13152-2 0  9998
2 69671  97.2848 237.5846 0000814  76.5473 345.5986 15.49163806  4444
STARLINK-37946          
1 69672U 26143Z   26193.58335648  .00070195  00000+0  12821-2 0  9996
2 69672  97.2852 237.6188 0001172  77.5745  62.2365 15.49160721  4448
TJS-26A                 
1 69674U 26144A   26193.29904564 -.00000341  00000+0  00000+0 0  9996
2 69674   6.9538 323.2302 0004208 347.4913 194.6526  1.00274367   198
STARLINK-38005          
1 69677U 26145A   26193.50854911  .00167827  00000+0  11012-2 0  9994
2 69677  97.2845  40.2115 0001577 114.7562 245.3868 15.75251243  2756
STARLINK-38009          
1 69678U 26145B   26193.57031500  .00188049  00000+0  12336-2 0  9992
2 69678  97.2840  40.2825 0001720 352.0820   8.0418 15.75197807  2765
STARLINK-37998          
1 69679U 26145C   26193.58335648 -.00188327  00000+0 -12843-2 0  9998
2 69679  97.2849  40.3023 0001471  74.5196  13.5014 15.75287262  4008
STARLINK-37994          
1 69680U 26145D   26193.58335648 -.00174626  00000+0 -11896-2 0  9994
2 69680  97.2847  40.2989 0001433  80.1625 359.8684 15.75272986  4002
STARLINK-37992          
1 69681U 26145E   26193.58335648 -.00177170  00000+0 -12072-2 0  9999
2 69681  97.2848  40.2995 0001423  72.2443   9.7863 15.75276190  4001
STARLINK-37997          
1 69682U 26145F   26193.58335648 -.00177324  00000+0 -12085-2 0  9995
2 69682  97.2850  40.3017 0001362  81.9345   4.0986 15.75272012  4004
STARLINK-37990          
1 69683U 26145G   26193.44183860 -.00950908  00000+0 -78726-2 0  9999
2 69683  97.2857  40.1518 0008577  51.5657 308.6376 15.72763270  2743
STARLINK-37951          
1 69684U 26145H   26193.56749347  .00175315  00000+0  11520-2 0  9999
2 69684  97.2833  40.2831 0002907 350.2135   9.9073 15.75193143  2764
STARLINK-37957          
1 69685U 26145J   26193.56643072  .00145273  00000+0  95792-3 0  9992
2 69685  97.2849  40.2855 0001138  46.3842 313.7518 15.75200867  2763
STARLINK-37968          
1 69686U 26145K   26193.56043139  .00152114  00000+0  10027-2 0  9990
2 69686  97.2842  40.2942 0000728 356.0683   4.0576 15.75189418  2764
STARLINK-37977          
1 69687U 26145L   26193.55972467  .00147191  00000+0  97056-3 0  9992
2 69687  97.2852  40.2944 0000736  57.2871 302.8465 15.75195706  2769
STARLINK-37908          
1 69688U 26145M   26193.55760986  .00184550  00000+0  12108-2 0  9998
2 69688  97.2847  40.2994 0001964 349.8272  10.2954 15.75205318  2762
STARLINK-37979          
1 69689U 26145N   26193.55725743  .00197098  00000+0  12911-2 0  9994
2 69689  97.2843  40.2995 0001622   0.8451 359.2817 15.75205918  2764
STARLINK-37940          
1 69690U 26145P   26193.55619736  .00179408  00000+0  11780-2 0  9998
2 69690  97.2846  40.3012 0001829 356.7785   3.3468 15.75201103  2763
STARLINK-37961          
1 69691U 26145Q   26193.55302126  .00164812  00000+0  10841-2 0  9991
2 69691  97.2840  40.3042 0000744  42.6005 317.5317 15.75201244  2761
STARLINK-37787          
1 69692U 26145R   26193.55090553  .00159042  00000+0  10472-2 0  9999
2 69692  97.2823  40.3075 0000459  60.3317 299.7994 15.75195526  2762
STARLINK-37962          
1 69693U 26145S   26193.54914007  .00167718  00000+0  11029-2 0  9996
2 69693  97.2841  40.3098 0000774  86.0656 274.0698 15.75200972  2768
STARLINK-37953          
1 69694U 26145T   26193.55196368  .00190450  00000+0  12489-2 0  9990
2 69694  97.2834  40.3052 0000556  51.0799 309.0516 15.75200799  2764
STARLINK-37926          
1 69695U 26145U   26193.55125731  .00188040  00000+0  12333-2 0  9997
2 69695  97.2836  40.3070 0000667  51.9081 308.2244 15.75202957  2760
STARLINK-37959          
1 69696U 26145V   26193.55019951  .00188682  00000+0  12376-2 0  9993
2 69696  97.2846  40.3078 0000874  20.6210 339.5090 15.75200390  2762
STARLINK-37976          
1 69697U 26145W   26193.54737438  .00161014  00000+0  10598-2 0  9994
2 69697  97.2839  40.3123 0000572  32.2155 327.9145 15.75197346  2766
STARLINK-37912          
1 69698U 26145X   26193.54631788  .00152275  00000+0  10009-2 0  9992
2 69698  97.2834  40.3146 0001317  98.9676 261.1738 15.75253344  2760
STARLINK-37974          
1 69699U 26145Y   26193.54561330  .00178454  00000+0  11716-2 0  9991
2 69699  97.2833  40.3155 0001411  28.0980 332.0361 15.75206384  2769
STARLINK-37955          
1 69700U 26145Z   26193.54314054  .00082343  00000+0  54744-3 0  9993
2 69700  97.2842  40.3196 0001658  96.3436 263.8018 15.75197351  2767
